     2.100          NAVIGATION                              RINEX VERSION / TYPE
fic2rin                                 11/21/2015 00:41:45 PGM / RUN BY / DATE
                                                            END OF HEADER
29 15 11 20  1 59 44.0  .645117834210D-03  .147792889038D-11  .000000000000D+00
     .450000000000D+02 -.174375000000D+02  .445554273410D-08  .956088361055D+00
    -.964850187302D-06  .866818823852D-03  .496394932270D-05  .515365748024D+04
     .439184000000D+06  .521540641785D-07  .223077403795D+00 -.316649675369D-07
     .975500723669D+00  .290812500000D+03 -.560928399525D+00 -.818926968738D-08
     .885751180806D-10  .100000000000D+01  .187100000000D+04  .000000000000D+00
     .240000000000D+01  .000000000000D+00 -.102445483208D-07  .450000000000D+02
     .432006000000D+06  .400000000000D+01
31 15 11 20  1 59 44.0  .294586177915D-03 -.147792889038D-11  .000000000000D+00
     .500000000000D+01 -.915625000000D+01  .436625330055D-08  .186686039738D+01
    -.255182385445D-06  .828419509344D-02  .805780291557D-05  .515364007759D+04
     .439184000000D+06  .165775418282D-06 -.189293504107D+01  .521540641785D-07
     .973187718523D+00  .227562500000D+03 -.498559312734D+00 -.801783397497D-08
    -.502163774280D-09  .100000000000D+01  .187100000000D+04  .000000000000D+00
     .240000000000D+01  .000000000000D+00 -.135041773319D-07  .500000000000D+01
     .432006000000D+06  .400000000000D+01
 1 15 11 20  2  0  0.0  .483496114612D-05  .795807864051D-12  .000000000000D+00
     .128000000000D+03 -.822187500000D+02  .446340020425D-08  .251227989536D+01
    -.422075390816D-05  .482739368454D-02  .832229852676D-05  .515365953827D+04
     .439200000000D+06 -.111758708954D-07  .122210518563D+01 -.484287738800D-07
     .962875363212D+00  .220281250000D+03  .498703654472D+00 -.810426614664D-08
    -.200365488884D-09  .100000000000D+01  .187100000000D+04  .000000000000D+00
     .340000000000D+01  .000000000000D+00  .512227416039D-08  .128000000000D+03
     .432006000000D+06  .400000000000D+01
 2 15 11 20  2  0  0.0  .596201978624D-03  .909494701773D-12  .000000000000D+00
     .500000000000D+02 -.762187500000D+02  .479912847439D-08  .309147833938D+01
    -.393576920033D-05  .149805638939D-01  .781565904617D-05  .515367183304D+04
     .439200000000D+06  .111758708954D-07  .118067789257D+01 -.203028321266D-06
     .941589160534D+00  .215406250000D+03 -.221341874296D+01 -.804033491222D-08
    -.900037490174D-10  .100000000000D+01  .187100000000D+04  .000000000000D+00
     .240000000000D+01  .000000000000D+00 -.204890966415D-07  .500000000000D+02
     .432006000000D+06  .400000000000D+01
 3 15 11 20  2  0  0.0  .119307078421D-04 -.375166564481D-11  .000000000000D+00
     .890000000000D+02  .148437500000D+02  .441089801732D-08 -.132378394183D+01
     .640749931335D-06  .426068902016D-03  .113975256681D-04  .515356404495D+04
     .439200000000D+06  .502914190292D-07  .226333177134D+01  .149011611938D-07
     .959128557909D+00  .155781250000D+03 -.298521202570D+01 -.795818863336D-08
     .252510518077D-09  .100000000000D+01  .187100000000D+04  .000000000000D+00
     .340000000000D+01  .000000000000D+00  .186264514923D-08  .890000000000D+02
     .432006000000D+06  .400000000000D+01
 5 15 11 20  2  0  0.0 -.173021573573D-03  .375166564481D-11  .000000000000D+00
     .820000000000D+02  .155937500000D+02  .473662587091D-08 -.767382254105D+00
     .931322574615D-06  .452767766546D-02  .101290643215D-04  .515368497849D+04
     .439200000000D+06  .614672899246D-07  .225397055856D+01 -.130385160446D-07
     .946268286455D+00  .173343750000D+03  .469725195928D+00 -.816891169653D-08
     .193936649668D-09  .100000000000D+01  .187100000000D+04  .000000000000D+00
     .240000000000D+01  .000000000000D+00 -.107102096081D-07  .820000000000D+02
     .432006000000D+06  .400000000000D+01
 6 15 11 20  2  0  0.0  .981367193162D-04  .670752342558D-11  .000000000000D+00
     .870000000000D+02 -.770312500000D+02  .444804242168D-08 -.151579954252D+01
    -.387057662010D-05  .234000850469D-03  .790134072304D-05  .515358230972D+04
     .439200000000D+06 -.838190317154D-07  .121364221332D+01 -.186264514923D-07
     .962738581835D+00  .228437500000D+03  .294868764113D+01 -.803462038848D-08
    -.118219210019D-09  .100000000000D+01  .187100000000D+04  .000000000000D+00
     .240000000000D+01  .000000000000D+00  .419095158577D-08  .870000000000D+02
     .432006000000D+06  .400000000000D+01
 7 15 11 20  2  0  0.0  .479867216200D-03 -.113686837722D-11  .000000000000D+00
     .200000000000D+02 -.260937500000D+02  .453911764390D-08  .185531923624D+01
    -.125169754028D-05  .900755729526D-02  .805407762527D-05  .515369109917D+04
     .439200000000D+06 -.162050127983D-06 -.190145636626D+01  .651925802231D-07
     .968334849136D+00  .232031250000D+03 -.267981277934D+01 -.818105505950D-08
    -.410374236591D-09  .100000000000D+01  .187100000000D+04  .000000000000D+00
     .240000000000D+01  .000000000000D+00 -.111758708954D-07  .200000000000D+02
     .432006000000D+06  .400000000000D+01
 8 15 11 20  2  0  0.0 -.131460838020D-04 -.147792889038D-11  .000000000000D+00
     .630000000000D+02  .781250000000D+00  .475341228442D-08 -.179343960819D+00
     .111758708954D-06  .153824221343D-02  .487081706524D-05  .515360163498D+04
     .439200000000D+06 -.838190317154D-07  .163571026784D+00  .558793544769D-07
     .961457189945D+00  .287500000000D+03 -.166280322101D+01 -.839677833095D-08
     .167149819604D-09  .100000000000D+01  .187100000000D+04  .000000000000D+00
     .240000000000D+01  .000000000000D+00  .465661287308D-08  .630000000000D+02
     .432006000000D+06  .400000000000D+01
 9 15 11 20  2  0  0.0  .132173299789D-04  .625277607469D-11  .000000000000D+00
     .510000000000D+02  .480312500000D+02  .502770942428D-08 -.184011713722D+01
     .253133475780D-05  .423472141847D-03  .605732202530D-05  .515368665886D+04
     .439200000000D+06 -.111758708954D-07 -.297881408221D+01 -.931322574615D-08
     .956568462973D+00  .263687500000D+03  .212017304533D+01 -.835749098019D-08
     .148577617426D-09  .100000000000D+01  .187100000000D+04  .000000000000D+00
     .240000000000D+01  .000000000000D+00  .931322574615D-09  .510000000000D+02
     .432006000000D+06  .400000000000D+01
10 15 11 20  2  0  0.0  .227792188525D-04  .131876731757D-10  .000000000000D+00
     .850000000000D+02  .263437500000D+02  .442018411841D-08  .166685964854D+01
     .119954347610D-05  .844511669129D-03  .104699283838D-04  .516646868324D+04
     .439200000000D+06 -.577419996262D-07  .225901503949D+01  .186264514923D-08
     .959409414773D+00  .171156250000D+03 -.292103483653D+01 -.785282710177D-08
     .186436337250D-09  .100000000000D+01  .187100000000D+04  .000000000000D+00
     .340000000000D+01  .630000000000D+02  .325962901115D-08  .850000000000D+02
     .432006000000D+06  .400000000000D+01
11 15 11 20  2  0  0.0 -.617149285972D-03 -.216004991671D-11  .000000000000D+00
     .570000000000D+02 -.775625000000D+02  .614668460551D-08  .195842183158D+01
    -.428780913353D-05  .162923672469D-01  .476464629173D-05  .515363835526D+04
     .439200000000D+06  .257045030594D-06  .858557618371D+00 -.266358256340D-06
     .894632655944D+00  .250531250000D+03  .148230000294D+01 -.891572851874D-08
    -.134648465792D-09  .100000000000D+01  .187100000000D+04  .000000000000D+00
     .240000000000D+01  .000000000000D+00 -.121071934700D-07  .570000000000D+02
     .432006000000D+06  .400000000000D+01
12 15 11 20  2  0  0.0  .346810091287D-03  .306954461848D-11  .000000000000D+00
     .280000000000D+02  .298125000000D+02  .379587239904D-08  .143617268617D+01
     .153668224812D-05  .555494357832D-02  .894628465176D-05  .515357884216D+04
     .439200000000D+06 -.102445483208D-06 -.828894717512D+00  .102445483208D-06
     .990221074980D+00  .222437500000D+03  .640689281109D+00 -.782568311397D-08
     .242867259253D-10  .100000000000D+01  .187100000000D+04  .000000000000D+00
     .240000000000D+01  .000000000000D+00 -.125728547573D-07  .280000000000D+02
     .432006000000D+06  .400000000000D+01
13 15 11 20  2  0  0.0 -.165534205735D-03 -.284217094304D-11  .000000000000D+00
     .520000000000D+02  .356562500000D+02  .457661920599D-08  .276682659956D+01
     .172853469849D-05  .465142296162D-02  .582821667194D-05  .515368284988D+04
     .439200000000D+06  .121071934700D-06 -.286103591987D+01  .335276126862D-07
     .973116282771D+00  .272937500000D+03  .202978573748D+01 -.812426697976D-08
     .271439877989D-10  .100000000000D+01  .187100000000D+04  .000000000000D+00
     .240000000000D+01  .000000000000D+00 -.111758708954D-07  .520000000000D+02
     .432006000000D+06  .400000000000D+01
14 15 11 20  2  0  0.0  .205920077860D-04 -.238742359215D-11  .000000000000D+00
     .190000000000D+02  .352500000000D+02  .476877006699D-08 -.163447644420D+01
     .202469527721D-05  .836734729819D-02  .577233731747D-05  .515368269348D+04
     .439200000000D+06  .147148966789D-06 -.289681801102D+01  .912696123123D-07
     .965611741239D+00  .269281250000D+03 -.194795562264D+01 -.818462663684D-08
     .607168148133D-10  .100000000000D+01  .187100000000D+04  .000000000000D+00
     .240000000000D+01  .000000000000D+00 -.931322574615D-08  .190000000000D+02
     .432006000000D+06  .400000000000D+01
15 15 11 20  2  0  0.0 -.283028464764D-03 -.193267624127D-11  .000000000000D+00
     .700000000000D+02  .453437500000D+02  .550415784170D-08 -.236403892611D+01
     .209733843803D-05  .776820525061D-02  .593438744545D-05  .515375152779D+04
     .439200000000D+06  .502914190292D-07 -.302670910288D+01 -.176951289177D-06
     .932365513246D+00  .251843750000D+03  .435779195701D+00 -.857357140938D-08
     .161078138122D-09  .100000000000D+01  .187100000000D+04  .000000000000D+00
     .240000000000D+01  .000000000000D+00 -.107102096081D-07  .700000000000D+02
     .432006000000D+06  .400000000000D+01
